{"spkid": "50252372", "covariance": {"epoch": "2453526.5", "elements": [{"units": null, "title": "eccentricity", "value": ".6150470265115828", "sigma": 1.15896295265767e-08, "name": "e", "label": "e"}, {"label": "q", "sigma": 2.91457942558591e-08, "name": "q", "value": ".9830040771834225", "title": "perihelion distance", "units": "au"}, {"value": "2453335.107363435178", "title": "time of perihelion passage", "units": "TDB", "sigma": 1.01231977746969e-05, "name": "tp", "label": "tp"}, {"label": "node", "sigma": 2.78121183337897e-06, "name": "om", "title": "longitude of the ascending node", "value": "75.35440873120177", "units": "deg"}, {"label": "peri", "value": "344.2632570159642", "title": "argument of perihelion", "units": "deg", "sigma": 1.3155119353512e-05, "name": "w"}, {"name": "i", "sigma": 6.66714338651019e-06, "units": "deg", "title": "inclination", "value": "13.75247563855822", "label": "i"}], "data": [["1.343195125632975E-16", "-2.90451235283232E-16", "-8.449079281638064E-14", "4.377010263233606E-15", "-1.149868995607913E-13", "9.85907175867209E-15"], ["-2.90451235283232E-16", "8.494773228048712E-16", "2.57021428514276E-13", "-1.029646153492077E-14", "3.458925597165217E-13", "-2.826931614065771E-14"], ["-8.449079281638064E-14", "2.57021428514276E-13", "1.024791331856292E-10", "2.674384598553566E-12", "1.298677028886817E-10", "-1.793214699013653E-11"], ["4.377010263233606E-15", "-1.029646153492077E-14", "2.674384598553566E-12", "7.735139262127215E-12", "-4.473818748087361E-12", "3.444096986143556E-12"], ["-1.149868995607913E-13", "3.458925597165217E-13", "1.298677028886817E-10", "-4.473818748087361E-12", "1.730571652051447E-10", "-2.613748218694694E-11"], ["9.85907175867209E-15", "-2.826931614065771E-14", "-1.793214699013653E-11", "3.444096986143556E-12", "-2.613748218694694E-11", "4.445080093628656E-11"]], "labels": ["e", "q", "tp", "node", "peri", "i"]}, "elements": [{"sigma": "6.5987E-9", "name": "e", "units": null, "title": "eccentricity", "value": ".6070699920033894", "label": "e"}, {"value": "2.562134842453532", "title": "semi-major axis", "units": "au", "sigma": "4.5679E-8", "name": "a", "label": "a"}, {"label": "q", "sigma": "1.8432E-8", "name": "q", "value": "1.006739664133661", "title": "perihelion distance", "units": "au"}, {"label": "i", "units": "deg", "value": "13.84718430586201", "title": "inclination; angle with respect to x-y ecliptic plane", "sigma": "6.7349E-6", "name": "i"}, {"sigma": "2.7013E-6", "name": "om", "units": "deg", "title": "longitude of the ascending node", "value": "74.72624588898206", "label": "node"}, {"units": "deg", "value": "345.977480539235", "title": "argument of perihelion", "sigma": "1.3962E-5", "name": "w", "label": "peri"}, {"name": "ma", "sigma": "4.6307E-5", "title": "mean anomaly", "value": "92.10392429454357", "units": "deg", "label": "M"}, {"sigma": ".00018255", "name": "tp", "units": "TDB", "title": "time of perihelion passage", "value": "2460817.254526170156", "label": "tp"}, {"label": "period", "units": "d", "title": "sidereal orbital period", "value": "1497.964083892106", "sigma": "4.0059E-5", "name": "per"}, {"units": "deg/d", "title": "mean motion", "value": ".2403261893066388", "sigma": "6.4269E-9", "name": "n", "label": "n"}, {"label": "Q", "units": "au", "title": "aphelion distance", "value": "4.117530020773402", "sigma": "7.3409E-8", "name": "ad"}], "epoch": "2461200.5"}